{
  "norad_id": 58447,
  "name": "STARLINK-30976",
  "history": [
    {
      "epoch": "2026-03-28T21:42:24.995808Z",
      "apogee_km": 486.5030276031066,
      "perigee_km": 484.70335492495724,
      "latitude_deg": 3.703022569808103e-05,
      "longitude_deg": 141.15438187422058,
      "height_km": 485.31767037372174,
      "semi_major_axis_km": 6863.740191264032,
      "eccentricity": 0.0001311,
      "inclination_deg": 43.0037,
      "raan_deg": 293.0767,
      "arg_perigee_deg": 273.9922,
      "mean_anomaly_deg": 86.078,
      "mean_motion_rev_day": 15.26727428
    },
    {
      "epoch": "2026-03-29T21:15:31.721184Z",
      "apogee_km": 486.421003430758,
      "perigee_km": 484.6183326434648,
      "latitude_deg": 7.184726123254943e-06,
      "longitude_deg": 141.373087206957,
      "height_km": 485.2731458627608,
      "semi_major_axis_km": 6863.656668037112,
      "eccentricity": 0.00013132,
      "inclination_deg": 43.0026,
      "raan_deg": 287.5407,
      "arg_perigee_deg": 271.4956,
      "mean_anomaly_deg": 88.5745,
      "mean_motion_rev_day": 15.26755296
    },
    {
      "epoch": "2026-03-30T12:57:35.324352Z",
      "apogee_km": 486.5355832638106,
      "perigee_km": 484.3860417008964,
      "latitude_deg": 3.054595203671744e-05,
      "longitude_deg": -98.475117594085,
      "height_km": 485.0530211464882,
      "semi_major_axis_km": 6863.597812482353,
      "eccentricity": 0.00015659,
      "inclination_deg": 43.0033,
      "raan_deg": 283.8523,
      "arg_perigee_deg": 279.916,
      "mean_anomaly_deg": 80.1515,
      "mean_motion_rev_day": 15.26774934
    },
    {
      "epoch": "2026-03-30T20:48:37.930752Z",
      "apogee_km": 486.6678237109991,
      "perigee_km": 484.4131056638489,
      "latitude_deg": -2.1796374279791014e-05,
      "longitude_deg": 141.5964491919806,
      "height_km": 485.264728638903,
      "semi_major_axis_km": 6863.677464687424,
      "eccentricity": 0.00016425,
      "inclination_deg": 43.0031,
      "raan_deg": 282.0072,
      "arg_perigee_deg": 272.6982,
      "mean_anomaly_deg": 87.3681,
      "mean_motion_rev_day": 15.26748357
    },
    {
      "epoch": "2026-03-31T18:47:32.661888Z",
      "apogee_km": 486.65846610290737,
      "perigee_km": 484.44561275659635,
      "latitude_deg": -3.221735318557182e-06,
      "longitude_deg": 165.79836053887308,
      "height_km": 485.25346438271777,
      "semi_major_axis_km": 6863.689039429752,
      "eccentricity": 0.0001612,
      "inclination_deg": 43.0039,
      "raan_deg": 276.8399,
      "arg_perigee_deg": 273.9374,
      "mean_anomaly_deg": 86.1293,
      "mean_motion_rev_day": 15.26744495
    },
    {
      "epoch": "2026-03-31T18:47:32.662752Z",
      "apogee_km": 486.65846610290737,
      "perigee_km": 484.44561275659635,
      "latitude_deg": -3.2338701729546437e-06,
      "longitude_deg": 165.79835691609733,
      "height_km": 485.25346438395144,
      "semi_major_axis_km": 6863.689039429752,
      "eccentricity": 0.0001612,
      "inclination_deg": 43.0039,
      "raan_deg": 276.8399,
      "arg_perigee_deg": 273.9374,
      "mean_anomaly_deg": 86.1293,
      "mean_motion_rev_day": 15.26744495
    },
    {
      "epoch": "2026-04-02T19:27:45.023328Z",
      "apogee_km": 491.36058412638795,
      "perigee_km": 476.3424360731824,
      "latitude_deg": -2.0300664303116605e-06,
      "longitude_deg": 142.308147914552,
      "height_km": 483.8285762908432,
      "semi_major_axis_km": 6861.988510099784,
      "eccentricity": 0.0010943,
      "inclination_deg": 43.0035,
      "raan_deg": 265.4,
      "arg_perigee_deg": 268.4866,
      "mean_anomaly_deg": 91.4732,
      "mean_motion_rev_day": 15.27312064
    },
    {
      "epoch": "2026-04-02T22:35:13.841088Z",
      "apogee_km": 485.99353715655434,
      "perigee_km": 470.6220735474353,
      "latitude_deg": 3.686857853439902e-05,
      "longitude_deg": 94.55398978737165,
      "height_km": 473.363117648701,
      "semi_major_axis_km": 6856.444805351995,
      "eccentricity": 0.00112095,
      "inclination_deg": 42.9985,
      "raan_deg": 264.6442,
      "arg_perigee_deg": 307.9271,
      "mean_anomaly_deg": 52.0568,
      "mean_motion_rev_day": 15.29164776
    }
  ]
}